[{"OBJECT_NAME":"STARLINK-35263","OBJECT_ID":"2025-207F","EPOCH":"2026-03-09T16:56:44.925792","MEAN_MOTION":15.0564883,"ECCENTRICITY":8.347e-5,"INCLINATION":97.6026,"RA_OF_ASC_NODE":138.6761,"ARG_OF_PERICENTER":95.0935,"MEAN_ANOMALY":265.0387,"EPHEMERIS_TYPE":0,"CLASSIFICATION_TYPE":"U","NORAD_CAT_ID":65597,"ELEMENT_SET_NO":999,"REV_AT_EPOCH":2826,"BSTAR":0.00019501353,"MEAN_MOTION_DOT":2.754e-5,"MEAN_MOTION_DDOT":0},{"OBJECT_NAME":"COSMOS 252 DEB","OBJECT_ID":"1968-097EJ","EPOCH":"2026-03-08T03:14:49.249536","MEAN_MOTION":13.20252107,"ECCENTRICITY":0.08649847,"INCLINATION":62.3495,"RA_OF_ASC_NODE":342.3911,"ARG_OF_PERICENTER":136.4436,"MEAN_ANOMALY":230.8291,"EPHEMERIS_TYPE":0,"CLASSIFICATION_TYPE":"U","NORAD_CAT_ID":18431,"ELEMENT_SET_NO":999,"REV_AT_EPOCH":43500,"BSTAR":0.00032551116,"MEAN_MOTION_DOT":9.11e-6,"MEAN_MOTION_DDOT":0}]
